STARLINK-30899          
1 58420U 23180U   26068.38888234  .00001297  00000+0  56666-4 0  9990
2 58420  43.0007  53.9313 0001219 272.5860  87.4852 15.27566389127468
FLOCK 4G-8              
1 62613U 25009E   26068.72381419  .00013559  00000+0  50438-3 0  9996
2 62613  97.4045 151.2834 0003050 315.2538  44.8455 15.27623414 63721
